     2.100          NAVIGATION                              RINEX VERSION / TYPE
fic2rin                                 03/20/2016 00:04:53 PGM / RUN BY / DATE
                                                            END OF HEADER
 4 16  3 19 22  0  0.0 -.252778176218D-03 -.795807864051D-12  .000000000000D+00
     .610000000000D+02  .860937500000D+02  .529450625172D-08  .171528382862D+01
     .441819429398D-05  .827705441043D-02  .101402401924D-04  .515362883568D+04
     .597600000000D+06 -.199303030968D-06 -.298719087256D+01 -.167638063431D-07
     .983681601487D+00  .197937500000D+03  .860359024973D+00 -.784318384295D-08
     .228223792151D-09  .100000000000D+01  .188800000000D+04  .000000000000D+00
     .240000000000D+01  .630000000000D+02 -.190921127796D-07  .610000000000D+02
     .590406000000D+06  .400000000000D+01
 5 16  3 19 22  0  0.0 -.136194285005D-03  .329691829393D-11  .000000000000D+00
     .860000000000D+02  .261250000000D+02  .465340811884D-08  .143190983652D+01
     .141374766827D-05  .458016979974D-02  .105425715446D-04  .515375661850D+04
     .597600000000D+06 -.819563865662D-07  .121216259749D+00  .372529029846D-08
     .946862722736D+00  .169937500000D+03  .470526389347D+00 -.808283668259D-08
     .336442585613D-09  .100000000000D+01  .188800000000D+04  .000000000000D+00
     .240000000000D+01  .000000000000D+00 -.107102096081D-07  .860000000000D+02
     .590406000000D+06  .400000000000D+01
 6 16  3 19 22  0  0.0  .162906013429D-03  .579802872380D-11  .000000000000D+00
     .113000000000D+03 -.832187500000D+02  .434089510142D-08 -.885268970823D+00
    -.432319939137D-05  .392383080907D-03  .821985304356D-05  .515366107178D+04
     .597600000000D+06  .391155481339D-07 -.917245617065D+00  .391155481339D-07
     .963726510895D+00  .224750000000D+03 -.168665168521D+01 -.805319259065D-08
    -.276440086268D-09  .100000000000D+01  .188800000000D+04  .000000000000D+00
     .240000000000D+01  .000000000000D+00  .419095158577D-08  .113000000000D+03
     .590406000000D+06  .400000000000D+01
 7 16  3 19 22  0  0.0  .464441254735D-03 -.181898940355D-11  .000000000000D+00
     .900000000000D+01 -.369375000000D+02  .444839957941D-08 -.219987426619D+01
    -.210292637348D-05  .916085357312D-02  .955350697041D-05  .515366467476D+04
     .597600000000D+06  .577419996262D-07  .225054630621D+01 -.137835741043D-06
     .966945311028D+00  .198968750000D+03 -.268358026591D+01 -.789568602987D-08
    -.308227124611D-09  .100000000000D+01  .188800000000D+04  .000000000000D+00
     .240000000000D+01  .000000000000D+00 -.111758708954D-07  .900000000000D+01
     .590406000000D+06  .400000000000D+01
 8 16  3 19 22  0  0.0 -.281124375761D-04 -.147792889038D-11  .000000000000D+00
     .920000000000D+02  .102187500000D+02  .484841624171D-08  .168612695697D+01
     .387430191040D-06  .183651142288D-02  .224448740482D-05  .515365992165D+04
     .597600000000D+06 -.130385160446D-07 -.196916188709D+01  .558793544769D-08
     .962267756280D+00  .332250000000D+03 -.126323384006D+01 -.849499670785D-08
    -.632169189527D-10  .100000000000D+01  .188800000000D+04  .000000000000D+00
     .240000000000D+01  .000000000000D+00  .465661287308D-08  .920000000000D+02
     .590406000000D+06  .400000000000D+01
10 16  3 19 22  0  0.0  .235033221543D-04 -.886757334229D-11  .000000000000D+00
     .320000000000D+02  .275937500000D+02  .435553856852D-08  .256930952427D+01
     .155530869961D-05  .127648760099D-02  .110380351543D-04  .515368879128D+04
     .597600000000D+06  .186264514923D-07  .128133471856D+00 -.167638063431D-07
     .960021858112D+00  .164812500000D+03 -.281900061465D+01 -.789747181854D-08
     .493234830925D-09  .100000000000D+01  .188800000000D+04  .000000000000D+00
     .240000000000D+01  .000000000000D+00  .232830643654D-08  .320000000000D+02
     .590406000000D+06  .400000000000D+01
11 16  3 19 22  0  0.0 -.637347344309D-03 -.159161572810D-11  .000000000000D+00
     .340000000000D+02 -.946875000000D+02  .594739058983D-08 -.208004394138D+01
    -.470876693726D-05  .162385095609D-01  .404193997383D-05  .515365749931D+04
     .597600000000D+06  .359490513802D-06 -.128104030923D+01  .100582838058D-06
     .895686210046D+00  .263406250000D+03  .150770082657D+01 -.871964892266D-08
    -.362157942475D-09  .100000000000D+01  .188800000000D+04  .000000000000D+00
     .240000000000D+01  .000000000000D+00 -.121071934700D-07  .340000000000D+02
     .590406000000D+06  .400000000000D+01
12 16  3 19 22  0  0.0  .373071990907D-03  .147792889038D-11  .000000000000D+00
     .320000000000D+02  .759062500000D+02  .381194449707D-08 -.265255011597D+01
     .394880771637D-05  .598600041121D-02  .921823084354D-05  .515376955223D+04
     .597600000000D+06  .540167093277D-07 -.295843447767D+01 -.117346644402D-06
     .990632222254D+00  .214531250000D+03  .690779479109D+00 -.766353350265D-08
     .233938315898D-09  .100000000000D+01  .188800000000D+04  .000000000000D+00
     .240000000000D+01  .000000000000D+00 -.121071934700D-07  .320000000000D+02
     .590406000000D+06  .400000000000D+01
13 16  3 19 22  0  0.0 -.473251566291D-05 -.284217094304D-11  .000000000000D+00
     .590000000000D+02  .312500000000D+01  .471983945740D-08 -.125130563322D+01
     .184401869774D-06  .461118889507D-02  .487081706524D-05  .515367613029D+04
     .597600000000D+06 -.104308128357D-06  .129189301235D+01 -.409781932831D-07
     .971639532801D+00  .294656250000D+03  .198652635603D+01 -.827463038585D-08
     .410731394325D-10  .100000000000D+01  .188800000000D+04  .000000000000D+00
     .240000000000D+01  .000000000000D+00 -.111758708954D-07  .590000000000D+02
     .590406000000D+06  .400000000000D+01
15 16  3 19 22  0  0.0 -.302512664348D-03 -.181898940355D-11  .000000000000D+00
     .660000000000D+02  .180312500000D+02  .565059251272D-08 -.233437874482D+00
     .111386179924D-05  .808425608557D-02  .436976552010D-05  .515355219269D+04
     .597600000000D+06  .689178705215D-07  .112125688268D+01  .577419996262D-07
     .931060269940D+00  .278250000000D+03  .478083509617D+00 -.881893877277D-08
     .180007498035D-09  .100000000000D+01  .188800000000D+04  .000000000000D+00
     .240000000000D+01  .000000000000D+00 -.107102096081D-07  .660000000000D+02
     .590406000000D+06  .400000000000D+01
16 16  3 19 22  0  0.0 -.309399329126D-04  .295585778076D-11  .000000000000D+00
     .910000000000D+02  .831250000000D+02  .384087427354D-08  .157852313240D+01
     .461935997009D-05  .868238951080D-02  .100545585155D-04  .515373162270D+04
     .597600000000D+06 -.186264514923D-08 -.293968533481D+01  .162050127983D-06
     .991144664902D+00  .202593750000D+03  .342873001854D+00 -.781389690874D-08
     .160363822654D-09  .100000000000D+01  .188800000000D+04  .000000000000D+00
     .240000000000D+01  .000000000000D+00 -.102445483208D-07  .910000000000D+02
     .590406000000D+06  .400000000000D+01
17 16  3 19 22  0  0.0 -.202250201255D-03 -.454747350886D-12  .000000000000D+00
     .690000000000D+02  .184375000000D+01  .455090384913D-08  .634999293424D+00
     .143423676491D-06  .109898848459D-01  .322610139847D-05  .515365488052D+04
     .597600000000D+06 -.122934579849D-06 -.191749235198D+01  .223517417908D-07
     .975383836515D+00  .328500000000D+03 -.193539371333D+01 -.846463830045D-08
    -.118219210019D-09  .100000000000D+01  .188800000000D+04  .000000000000D+00
     .240000000000D+01  .000000000000D+00 -.107102096081D-07  .690000000000D+02
     .590406000000D+06  .400000000000D+01
18 16  3 19 22  0  0.0  .495458953083D-03  .409272615798D-11  .000000000000D+00
     .960000000000D+02  .199375000000D+02  .499342228180D-08  .219660818601D+01
     .983476638794D-06  .168391339248D-01  .110194087029D-04  .515367322350D+04
     .597600000000D+06  .167638063431D-06  .101621734576D+00 -.292435288429D-06
     .925499119988D+00  .144968750000D+03 -.190379235239D+01 -.803854912355D-08
     .494663461862D-09  .100000000000D+01  .188800000000D+04  .000000000000D+00
     .340000000000D+01  .000000000000D+00 -.111758708954D-07  .960000000000D+02
     .590406000000D+06  .400000000000D+01
19 16  3 19 22  0  0.0 -.525370240211D-03 -.113686837722D-12  .000000000000D+00
     .690000000000D+02 -.928125000000D+01  .457376194412D-08 -.251299173228D+01
    -.473111867905D-06  .107460024301D-01  .276602804661D-05  .515360758209D+04
     .597600000000D+06  .158324837685D-06 -.186851556923D+01 -.188127160072D-06
     .972447986682D+00  .331125000000D+03  .726184585051D+00 -.823391440416D-08
    -.178578867098D-11  .100000000000D+01  .188800000000D+04  .000000000000D+00
     .240000000000D+01  .000000000000D+00 -.153668224812D-07  .690000000000D+02
     .590406000000D+06  .400000000000D+01
20 16  3 19 22  0  0.0  .400403980166D-03  .250111042988D-11  .000000000000D+00
     .420000000000D+02  .198750000000D+02  .499735101687D-08 -.126461417934D+00
     .109523534775D-05  .476560287643D-02  .109970569611D-04  .515371215439D+04
     .597600000000D+06 -.137835741043D-06  .497343519554D-01  .135973095894D-06
     .926752833467D+00  .151281250000D+03  .134546177207D+01 -.827927343640D-08
     .429303596504D-09  .100000000000D+01  .188800000000D+04  .000000000000D+00
     .240000000000D+01  .000000000000D+00 -.838190317154D-08  .420000000000D+02
     .590406000000D+06  .400000000000D+01
22 16  3 19 22  0  0.0  .378446187824D-03 -.682121026330D-11  .000000000000D+00
     .770000000000D+02  .224062500000D+02  .517271546436D-08  .638142617224D+00
     .127591192722D-05  .777215405833D-02  .110343098640D-04  .515507092667D+04
     .597600000000D+06 -.126659870148D-06  .102371626383D+00  .372529029846D-08
     .923361259783D+00  .148750000000D+03 -.200749786601D+01 -.839320675361D-08
     .348585948575D-09  .100000000000D+01  .188800000000D+04  .000000000000D+00
     .340000000000D+01  .000000000000D+00 -.176951289177D-07  .770000000000D+02
     .590406000000D+06  .400000000000D+01
